AO-85(Fox-1A)
1 40967U 15058D   24065.29435158 +.00005765 +00000+0 +55098-3 0    15
2 40967  64.7743 318.0284 0180553 339.1261  20.2537 14.82671027453270